CELESTIS-17 & SHERPA-FX1
1 47486U 21006CB  26068.64311433  .00007207  00000+0  24301-3 0  9993
2 47486  97.2397 112.1052 0006630 178.1385 181.9882 15.30994801284065
STARLINK-35118          
1 66858U 25281L   26067.18085412  .00039094  00000+0  14204-2 0  9998
2 66858  43.0039 352.0942 0001601 279.6952  80.3719 15.27631687 15951
