[{"OBJECT_NAME":"CELESTIS-17 & SHERPA-FX1","OBJECT_ID":"2021-006CB","EPOCH":"2026-03-09T15:26:05.078112","MEAN_MOTION":15.30994801,"ECCENTRICITY":0.000663,"INCLINATION":97.2397,"RA_OF_ASC_NODE":112.1052,"ARG_OF_PERICENTER":178.1385,"MEAN_ANOMALY":181.9882,"EPHEMERIS_TYPE":0,"CLASSIFICATION_TYPE":"U","NORAD_CAT_ID":47486,"ELEMENT_SET_NO":999,"REV_AT_EPOCH":28406,"BSTAR":0.00024301,"MEAN_MOTION_DOT":7.207e-5,"MEAN_MOTION_DDOT":0},{"OBJECT_NAME":"STARLINK-35118","OBJECT_ID":"2025-281L","EPOCH":"2026-03-08T04:20:25.795968","MEAN_MOTION":15.27631687,"ECCENTRICITY":0.00016019,"INCLINATION":43.0039,"RA_OF_ASC_NODE":352.0942,"ARG_OF_PERICENTER":279.6952,"MEAN_ANOMALY":80.3719,"EPHEMERIS_TYPE":0,"CLASSIFICATION_TYPE":"U","NORAD_CAT_ID":66858,"ELEMENT_SET_NO":999,"REV_AT_EPOCH":1595,"BSTAR":0.0014204283,"MEAN_MOTION_DOT":0.00039094,"MEAN_MOTION_DDOT":0}]
